{
  "type": "FeatureCollection",
  "features": [
    {
      "type": "Feature",
      "properties": {
        "panchayat_name": "Alkusha",
        "fill_color": "#2ca25f"
      },
      "geometry": {
        "type": "Polygon",
        "coordinates": [
          [
            [
              86.22,
              23.65
            ],
            [
              86.26,
              23.65
            ],
            [
              86.26,
              23.678
            ],
            [
              86.22,
              23.678
            ],
            [
              86.22,
              23.65
            ]
          ]
        ]
      }
    },
    {
      "type": "Feature",
      "properties": {
        "panchayat_name": "Kumhari",
        "fill_color": "#2ca25f"
      },
      "geometry": {
        "type": "Polygon",
        "coordinates": [
          [
            [
              86.225,
              23.695
            ],
            [
              86.26,
              23.695
            ],
            [
              86.26,
              23.71
            ],
            [
              86.225,
              23.71
            ],
            [
              86.225,
              23.695
            ]
          ]
        ]
      }
    },
    {
      "type": "Feature",
      "properties": {
        "panchayat_name": "West Ghatiyali",
        "fill_color": "#2ca25f"
      },
      "geometry": {
        "type": "Polygon",
        "coordinates": [
          [
            [
              86.09,
              23.58
            ],
            [
              86.13,
              23.58
            ],
            [
              86.13,
              23.6
            ],
            [
              86.09,
              23.6
            ],
            [
              86.09,
              23.58
            ]
          ]
        ]
      }
    },
    {
      "type": "Feature",
      "properties": {
        "panchayat_name": "Kura",
        "fill_color": "#2ca25f"
      },
      "geometry": {
        "type": "Polygon",
        "coordinates": [
          [
            [
              86.195,
              23.575
            ],
            [
              86.22,
              23.575
            ],
            [
              86.22,
              23.61
            ],
            [
              86.195,
              23.61
            ],
            [
              86.195,
              23.575
            ]
          ]
        ]
      }
    },
    {
      "type": "Feature",
      "properties": {
        "panchayat_name": "Babudih",
        "fill_color": "#2ca25f"
      },
      "geometry": {
        "type": "Polygon",
        "coordinates": [
          [
            [
              86.256,
              23.56
            ],
            [
              86.29,
              23.56
            ],
            [
              86.29,
              23.59
            ],
            [
              86.256,
              23.59
            ],
            [
              86.256,
              23.56
            ]
          ]
        ]
      }
    }
  ]
}