{
    "type": "FeatureCollection",
    "features": [
        {
            "type": "Feature",
            "properties": {
                "name": "Selected Area"
            },
            "geometry": {
                "type": "Polygon",
                "coordinates": [
                    [
                        [
                            86.03999999999999,
                            23.75
                        ],
                        [
                            86.03999999999999,
                            23.68
                        ],
                        [
                            86.03,
                            23.63
                        ],
                        [
                            86.03999999999999,
                            23.58
                        ],
                        [
                            86.07,
                            23.57
                        ],
                        [
                            86.15,
                            23.560000000000002
                        ],
                        [
                            86.147,
                            23.467499999999998
                        ],
                        [
                            86.22200000000001,
                            23.44
                        ],
                        [
                            86.24,
                            23.47
                        ],
                        [
                            86.28999999999999,
                            23.540000000000003
                        ],
                        [
                            86.25,
                            23.62
                        ],
                        [
                            86.32,
                            23.66
                        ],
                        [
                            86.32,
                            23.72
                        ],
                        [
                            86.17,
                            23.72
                        ],
                        [
                            86.03999999999999,
                            23.75
                        ]
                    ]
                ]
            }
        }
    ]
}